1 42883U 17042BL  19036.93556308  .00002524  00000-0  68023-4 0  9993
2 42883  96.9575 286.7162 0011200 343.1343  16.9530 15.38634393 87560
1 42883U 17042BL  19037.91109074  .00002405  00000-0  64903-4 0  9997
2 42883  96.9572 287.6421 0011080 339.4220  20.6578 15.38639157 87717
1 42883U 17042BL  19038.17123102  .00002369  00000-0  63982-4 0  9999
2 42883  96.9572 287.8890 0011051 338.4196  21.6583 15.38640389 87758
1 42883U 17042BL  19038.43137142  .00002408  00000-0  64980-4 0  9990
2 42883  96.9571 288.1359 0011019 337.4423  22.6337 15.38641498 87791
1 42883U 17042BL  19038.88661592  .00002536  00000-0  68326-4 0  9990
2 42883  96.9570 288.5680 0010960 335.7161  24.3568 15.38644177 87865
1 42883U 17042BL  19039.21179003  .00002630  00000-0  70787-4 0  9998
2 42883  96.9569 288.8766 0010921 334.4730  25.5976 15.38646189 87913
1 42883U 17042BL  19039.86213724  .00002806  00000-0  75379-4 0  9995
2 42883  96.9567 289.4938 0010854 331.9223  28.1437 15.38650078 88018
1 42883U 17042BL  19039.92717188  .00002831  00000-0  76048-4 0  9997
2 42883  96.9567 289.5555 0010846 331.6708  28.3948 15.38650493 88021
1 42883U 17042BL  19040.44744850  .00002937  00000-0  78797-4 0  9992
2 42883  96.9566 290.0493 0010785 329.6444  30.4176 15.38653557 88104
1 42883U 17042BL  19040.90268986  .00002977  00000-0  79836-4 0  9993
2 42883  96.9566 290.4813 0010727 327.8266  32.2325 15.38656088 88177
1 42883U 17042BL  19041.68310219  .00002703  00000-0  72673-4 0  9995
2 42883  96.9565 291.2220 0010644 324.7080  35.3461 15.38659443 88291
1 42883U 17042BL  19041.87820505  .00002619  00000-0  70481-4 0  9991
2 42883  96.9565 291.4071 0010617 323.9223  36.1306 15.38660100 88320
1 42883U 17042BL  19042.65861551  .00002237  00000-0  60484-4 0  9992
2 42883  96.9564 292.1477 0010554 320.8572  39.1910 15.38662588 88449
1 42883U 17042BL  19043.17888750  .00002428  00000-0  65467-4 0  9998
2 42883  96.9564 292.6414 0010500 318.7947  41.2506 15.38665994 88526
1 42883U 17042BL  19043.89426049  .00002708  00000-0  72778-4 0  9990
2 42883  96.9564 293.3202 0010425 315.8990  44.1424 15.38670348 88633
1 42883U 17042BL  19044.47956427  .00002625  00000-0  70606-4 0  9999
2 42883  96.9564 293.8756 0010381 313.5287  46.5096 15.38673092 88727
1 42883U 17042BL  19044.93479942  .00002807  00000-0  75357-4 0  9992
2 42883  96.9565 294.3076 0010339 311.6670  48.3690 15.38676209 88797
1 42883U 17042BL  19045.45506767  .00002904  00000-0  77880-4 0  9997
2 42883  96.9565 294.8014 0010292 309.5376  50.4960 15.38679141 88872
1 42883U 17042BL  19045.78023454  .00003002  00000-0  80444-4 0  9990
2 42883  96.9566 295.1099 0010264 308.1775  51.8546 15.38681403 88922
1 42883U 17042BL  19045.91030179  .00002732  00000-0  73392-4 0  9990
2 42883  96.9566 295.2334 0010253 307.6387  52.3928 15.38680983 88940
1 42883U 17042BL  19046.82076748  .00002521  00000-0  67880-4 0  9994
2 42883  96.9566 296.0973 0010171 303.8387  56.1891 15.38685383 89081
1 42883U 17042BL  19046.88580062  .00002516  00000-0  67747-4 0  9995
2 42883  96.9567 296.1590 0010165 303.5630  56.4645 15.38685707 89090
1 42883U 17042BL  19047.86129676  .00002300  00000-0  62083-4 0  9993
2 42883  96.9567 297.0848 0010104 299.5156  60.5082 15.38690032 89241
1 42883U 17042BL  19048.90182338  .00002159  00000-0  58399-4 0  9990
2 42883  96.9566 298.0723 0010033 295.0358  64.9847 15.38694294 89408
1 42883U 17042BL  19049.29201981  .00002404  00000-0  64790-4 0  9994
2 42883  96.9565 298.4426 0010011 293.4086  66.6107 15.38696947 89468
1 42883U 17042BL  19049.74724890  .00002343  00000-0  63192-4 0  9990
2 42883  96.9564 298.8747 0009991 291.4571  68.5610 15.38698674 89536
1 42883U 17042BL  19050.39757516  .00002390  00000-0  64408-4 0  9997
2 42883  96.9562 299.4918 0009953 288.6519  71.3647 15.38701376 89636
1 42883U 17042BL  19050.85280263  .00002580  00000-0  69366-4 0  9997
2 42883  96.9561 299.9239 0009934 286.7176  73.2980 15.38704003 89702
1 42883U 17042BL  19051.43809416  .00002558  00000-0  68797-4 0  9991
2 42883  96.9559 300.4793 0009909 284.2502  75.7643 15.38706618 89796
1 42883U 17042BL  19051.89332012  .00002737  00000-0  73473-4 0  9990
2 42883  96.9558 300.9113 0009890 282.2628  77.7511 15.38709342 89863
1 42883U 17042BL  19052.47860977  .00002754  00000-0  73910-4 0  9996
2 42883  96.9556 301.4667 0009861 279.7355  80.2778 15.38712175 89959
1 42883U 17042BL  19052.73873797  .00002882  00000-0  77246-4 0  9997
2 42883  96.9556 301.7136 0009859 278.6742  81.3388 15.38714002 89992
1 42883U 17042BL  19052.86880217  .00002827  00000-0  75811-4 0  9991
2 42883  96.9555 301.8370 0009851 278.1027  81.9102 15.38714380 90019
1 42883U 17042BL  19053.84428151  .00002603  00000-0  69955-4 0  9999
2 42883  96.9553 302.7627 0009828 273.8779  86.1344 15.38718364 90169
1 42883U 17042BL  19053.90931352  .00002522  00000-0  67836-4 0  9994
2 42883  96.9553 302.8244 0009826 273.6079  86.4044 15.38718342 90171
1 42883U 17042BL  19054.88479004  .00002281  00000-0  61521-4 0  9990
2 42883  96.9550 303.7500 0009819 269.3295  90.6826 15.38722204 90321
1 42883U 17042BL  19055.14491660  .00002296  00000-0  61916-4 0  9996
2 42883  96.9550 303.9968 0009819 268.2055  91.8066 15.38723540 90360
1 42883U 17042BL  19055.86026444  .00001972  00000-0  53450-4 0  9993
2 42883  96.9549 304.6755 0009820 265.1389  94.8737 15.38725442 90471
1 42883U 17042BL  19056.18542186  .00002026  00000-0  54872-4 0  9995
2 42883  96.9549 304.9840 0009819 263.6859  96.3270 15.38727086 90523
1 42883U 17042BL  19056.83573646  .00002031  00000-0  54976-4 0  9993
2 42883  96.9548 305.6011 0009828 260.8628  99.1507 15.38729505 90626
1 42883U 17042BL  19057.22592470  .00002057  00000-0  55674-4 0  9997
2 42883  96.9551 305.9712 0009864 259.4858 100.5278 15.38731218 90682
1 42883U 17042BL  19057.74617502  .00002266  00000-0  61114-4 0  9996
2 42883  96.9550 306.4648 0009878 257.2622 102.7520 15.38734456 90765
1 42883U 17042BL  19058.78667337  .00002392  00000-0  64402-4 0  9995
2 42883  96.9549 307.4521 0009896 252.7697 107.2467 15.38739452 90925
1 42883U 17042BL  19058.85170373  .00002532  00000-0  68045-4 0  9995
2 42883  96.9549 307.5138 0009893 252.4956 107.5210 15.38740689 90936
1 42883U 17042BL  19059.63207643  .00003246  00000-0  86646-4 0  9993
2 42883  96.9549 308.2542 0009895 248.8450 111.1740 15.38744361 91057
1 42883U 17042BL  19060.47747494  .00003875  00000-0  10304-3 0  9995
2 42883  96.9550 309.0564 0009892 245.3438 114.6778 15.38751363 91180
1 42883U 17042BL  19060.60753577  .00003999  00000-0  10626-3 0  9993
2 42883  96.9550 309.1798 0009909 244.6941 115.3279 15.38752721 91206
1 42883U 17042BL  19060.93268788  .00004069  00000-0  10809-3 0  9996
2 42883  96.9551 309.4884 0009916 243.3239 116.6993 15.38755158 91259
1 42883U 17042BL  19061.58299090  .00003856  00000-0  10253-3 0  9994
2 42883  96.9552 310.1054 0009930 240.4703 119.5554 15.38759149 91358
1 42883U 17042BL  19061.64802104  .00003803  00000-0  10114-3 0  9995
2 42883  96.9552 310.1671 0009934 240.1937 119.8322 15.38759602 91364
1 42883U 17042BL  19061.90814112  .00003740  00000-0  99494-4 0  9995
2 42883  96.9552 310.4139 0009949 239.0595 120.9674 15.38761771 91407
1 42883U 17042BL  19062.88358968  .00003183  00000-0  84939-4 0  9994
2 42883  96.9551 311.3393 0009995 234.7657 125.2654 15.38768037 91554
1 42883U 17042BL  19063.20873841  .00003050  00000-0  81469-4 0  9991
2 42883  96.9550 311.6479 0010018 233.3998 126.6328 15.38770013 91608
1 42883U 17042BL  19063.92406419  .00002884  00000-0  77140-4 0  9998
2 42883  96.9548 312.3267 0010076 230.4893 129.5463 15.38773805 91710
1 42883U 17042BL  19064.44429981  .00002783  00000-0  74493-4 0  9991
2 42883  96.9546 312.8203 0010119 228.3069 131.7312 15.38776799 91793
1 42883U 17042BL  19064.89950571  .00002532  00000-0  67948-4 0  9993
2 42883  96.9545 313.2523 0010162 226.3839 133.6565 15.38778581 91863
1 42883U 17042BL  19065.61482765  .00002622  00000-0  70290-4 0  9993
2 42883  96.9543 313.9310 0010207 223.4827 136.5615 15.38782755 91975
1 42883U 17042BL  19065.87494420  .00002605  00000-0  69831-4 0  9992
2 42883  96.9543 314.1779 0010232 222.3613 137.6844 15.38784102 92016
1 42883U 17042BL  19066.59026403  .00002655  00000-0  71139-4 0  9993
2 42883  96.9541 314.8566 0010286 219.3758 140.6742 15.38787827 92120
1 42883U 17042BL  19066.91540869  .00002741  00000-0  73358-4 0  9997
2 42883  96.9540 315.1651 0010308 218.0699 141.9820 15.38789836 92171
1 42883U 17042BL  19067.89084043  .00002849  00000-0  76149-4 0  9992
2 42883  96.9536 316.0905 0010395 214.0484 146.0097 15.38795441 92320
1 42883U 17042BL  19068.21598357  .00002844  00000-0  76026-4 0  9996
2 42883  96.9535 316.3990 0010423 212.7348 147.3254 15.38797276 92374
1 42883U 17042BL  19068.47609832  .00002639  00000-0  70685-4 0  9992
2 42883  96.9534 316.6458 0010449 211.6578 148.4041 15.38797726 92417
1 42883U 17042BL  19068.86626936  .00002773  00000-0  74158-4 0  9997
2 42883  96.9533 317.0160 0010487 210.0902 149.9743 15.38800249 92473
1 42883U 17042BL  19069.45152535  .00002874  00000-0  76783-4 0  9990
2 42883  96.9532 317.5712 0010533 207.7615 152.3071 15.38803408 92568
1 42883U 17042BL  19069.90672348  .00003066  00000-0  81767-4 0  9991
2 42883  96.9531 318.0030 0010590 205.9438 154.1279 15.38806381 92633
1 42883U 17042BL  19070.49197711  .00002369  00000-0  63624-4 0  9990
2 42883  96.9529 318.5582 0010662 203.6327 156.4431 15.38807455 92727
1 42883U 17042BL  19070.62203338  .00002345  00000-0  63008-4 0  9998
2 42883  96.9529 318.6815 0010675 203.1372 156.9395 15.38808078 92744
1 42883U 17042BL  19070.88214569  .00002350  00000-0  63122-4 0  9997
2 42883  96.9529 318.9283 0010706 202.0945 157.9841 15.38809421 92789
1 42883U 17042BL  19071.53242577  .00002274  00000-0  61153-4 0  9997
2 42883  96.9528 319.5451 0010777 199.5798 160.5036 15.38812360 92889
1 42883U 17042BL  19071.92259368  .00002914  00000-0  77799-4 0  9990
2 42883  96.9528 319.9153 0010813 198.0213 162.0652 15.38815914 92945
